GLOBALSTAR M057         
1 25943U 99058A   24279.58150178  .00000026  00000+0  10818-2 0  9990
2 25943  52.0020 350.7599 0002393 203.4627 156.6114 12.24800664135739
GLOBALSTAR M059         
1 25944U 99058B   24279.87170657 -.00000016  00000+0  86940-3 0  9997
2 25944  52.0008 175.1728 0000842  80.3990 357.6875 11.99966243132260
GLOBALSTAR M056         
1 25945U 99058C   24279.89017315 -.00000111  00000+0 -27501-3 0  9996
2 25945  51.9955 183.6099 0001622  45.3571  31.4552 12.04777415131972
GLOBALSTAR M039         
1 25961U 99062A   24279.83626082 -.00000023  00000+0  45101-3 0  9997
2 25961  51.9860 323.4101 0002977 141.0545 219.0536 12.62305038148091
GLOBALSTAR M029         
1 25963U 99062C   24279.79642135 -.00000063  00000+0  28983-3 0  9994
2 25963  51.9805  63.6273 0002182 356.3227 151.3301 11.99884001138583
GLOBALSTAR M061         
1 25964U 99062D   24279.90476525 -.00000084  00000+0 -55987-4 0  9995
2 25964  51.9775 133.0324 0005425 199.8817 260.7308 11.76766231 91249
